{
  "type": "FeatureCollection",
  "features": [
    {
      "type": "Feature",
      "id": "citizen-2fecf84856",
      "geometry": {
        "type": "Point",
        "coordinates": [
          -134.4,
          58.3
        ]
      },
      "properties": {
        "name": "Humpback Bubble-Net Feeding",
        "emoji": "🐋",
        "category": "Animal Migration",
        "categoryLabel": "Animal Migration",
        "description": "Cooperative bubble-net feeding, a learned behaviour passed between individuals rather than inherited. Underway — roughly 98% through the typical window, with 19 reports in the last two weeks.",
        "locationHint": "Southeast Alaska, Chatham Strait",
        "geocodedAddress": "United States",
        "sourceUrl": "https://api.inaturalist.org/v1/observations?taxon_id=41566",
        "startUtc": "2026-05-14T00:00:00Z",
        "endUtc": "2026-09-17T00:00:00Z",
        "confidence": 0.317,
        "isWithinLiveWindow": true
      }
    },
    {
      "type": "Feature",
      "id": "citizen-7d87b1b9ca",
      "geometry": {
        "type": "Point",
        "coordinates": [
          -119.6,
          50.9
        ]
      },
      "properties": {
        "name": "Sockeye Salmon Run",
        "emoji": "🐟",
        "category": "Animal Migration",
        "categoryLabel": "Animal Migration",
        "description": "Spawning sockeye turn the river red. Dominant-year runs are an order of magnitude larger than off years. Underway — roughly 39% through the typical window, with 28 reports in the last two weeks.",
        "locationHint": "Adams River, British Columbia",
        "geocodedAddress": "Canada",
        "sourceUrl": "https://api.inaturalist.org/v1/observations?taxon_id=69922",
        "startUtc": "2026-08-27T00:00:00Z",
        "endUtc": "2026-10-15T00:00:00Z",
        "confidence": 0.395,
        "isWithinLiveWindow": true
      }
    },
    {
      "type": "Feature",
      "id": "curated-71555bddfe",
      "geometry": {
        "type": "Point",
        "coordinates": [
          10,
          15
        ]
      },
      "properties": {
        "name": "Gerewol",
        "emoji": "💃",
        "category": "Human Ritual",
        "categoryLabel": "Human Ritual",
        "description": "Wodaabe men dance the yaake in ochre and beads for hours in the heat, judged by women of the clan. Held where herding groups converge as the rains end. Nomadic and weather-dependent — the gathering point shifts year to year, so coordinates are country-level on purpose.",
        "locationHint": "Southern Niger (location follows the herds)",
        "geocodedAddress": "Niger",
        "sourceUrl": "https://ich.unesco.org/",
        "startUtc": "2026-09-01T00:00:00Z",
        "endUtc": "2026-09-30T00:00:00Z",
        "confidence": 0.287,
        "isWithinLiveWindow": true
      }
    },
    {
      "type": "Feature",
      "id": "curated-7ed216ec67",
      "geometry": {
        "type": "Point",
        "coordinates": [
          145.387,
          -6.0833
        ]
      },
      "properties": {
        "name": "Goroka Show",
        "emoji": "🪶",
        "category": "Human Ritual",
        "categoryLabel": "Human Ritual",
        "description": "Over a hundred highland sing-sing groups in full regalia, the largest tribal gathering in Papua New Guinea. Held around PNG's Independence Day weekend in mid-September.",
        "locationHint": "Goroka, Eastern Highlands",
        "geocodedAddress": "Papua New Guinea",
        "sourceUrl": "https://www.papuanewguinea.travel/",
        "startUtc": "2026-09-13T00:00:00Z",
        "endUtc": "2026-09-16T00:00:00Z",
        "confidence": 0.598,
        "isWithinLiveWindow": true
      }
    },
    {
      "type": "Feature",
      "id": "aurora-d0b7bee87d",
      "geometry": {
        "type": "Point",
        "coordinates": [
          -21.9426,
          64.1466
        ]
      },
      "properties": {
        "name": "Aurora over Reykjavik",
        "emoji": "🌌",
        "category": "Atmospheric Phenomenon",
        "categoryLabel": "Atmospheric Phenomenon",
        "description": "OVATION puts auroral visibility at 28% overhead tonight. Planetary Kp is forecast to peak near 4.67 on 15 Sep 03:00 UTC. Clear skies and darkness still decide it.",
        "locationHint": "Reykjavik",
        "geocodedAddress": "Iceland",
        "sourceUrl": "https://services.swpc.noaa.gov/json/ovation_aurora_latest.json",
        "startUtc": "2026-09-14T21:34:27.234197Z",
        "endUtc": "2026-09-17T21:34:27.234197Z",
        "confidence": 0.572,
        "isWithinLiveWindow": true
      }
    },
    {
      "type": "Feature",
      "id": "aurora-2d724c2e1a",
      "geometry": {
        "type": "Point",
        "coordinates": [
          18.9553,
          69.6492
        ]
      },
      "properties": {
        "name": "Aurora over Tromso",
        "emoji": "🌌",
        "category": "Atmospheric Phenomenon",
        "categoryLabel": "Atmospheric Phenomenon",
        "description": "OVATION puts auroral visibility at 25% overhead tonight. Planetary Kp is forecast to peak near 4.67 on 15 Sep 03:00 UTC. Clear skies and darkness still decide it.",
        "locationHint": "Tromso",
        "geocodedAddress": "Norway",
        "sourceUrl": "https://services.swpc.noaa.gov/json/ovation_aurora_latest.json",
        "startUtc": "2026-09-14T21:34:27.234197Z",
        "endUtc": "2026-09-17T21:34:27.234197Z",
        "confidence": 0.54,
        "isWithinLiveWindow": true
      }
    },
    {
      "type": "Feature",
      "id": "aurora-3d68644781",
      "geometry": {
        "type": "Point",
        "coordinates": [
          18.8303,
          68.3494
        ]
      },
      "properties": {
        "name": "Aurora over Abisko",
        "emoji": "🌌",
        "category": "Atmospheric Phenomenon",
        "categoryLabel": "Atmospheric Phenomenon",
        "description": "OVATION puts auroral visibility at 25% overhead tonight. Planetary Kp is forecast to peak near 4.67 on 15 Sep 03:00 UTC. Clear skies and darkness still decide it.",
        "locationHint": "Abisko",
        "geocodedAddress": "Sweden",
        "sourceUrl": "https://services.swpc.noaa.gov/json/ovation_aurora_latest.json",
        "startUtc": "2026-09-14T21:34:27.234197Z",
        "endUtc": "2026-09-17T21:34:27.234197Z",
        "confidence": 0.54,
        "isWithinLiveWindow": true
      }
    },
    {
      "type": "Feature",
      "id": "aurora-f8dc310aeb",
      "geometry": {
        "type": "Point",
        "coordinates": [
          25.7294,
          66.5039
        ]
      },
      "properties": {
        "name": "Aurora over Rovaniemi",
        "emoji": "🌌",
        "category": "Atmospheric Phenomenon",
        "categoryLabel": "Atmospheric Phenomenon",
        "description": "OVATION puts auroral visibility at 24% overhead tonight. Planetary Kp is forecast to peak near 4.67 on 15 Sep 03:00 UTC. Clear skies and darkness still decide it.",
        "locationHint": "Rovaniemi",
        "geocodedAddress": "Finland",
        "sourceUrl": "https://services.swpc.noaa.gov/json/ovation_aurora_latest.json",
        "startUtc": "2026-09-14T21:34:27.234197Z",
        "endUtc": "2026-09-17T21:34:27.234197Z",
        "confidence": 0.529,
        "isWithinLiveWindow": true
      }
    },
    {
      "type": "Feature",
      "id": "aurora-3090a74ecc",
      "geometry": {
        "type": "Point",
        "coordinates": [
          33.0827,
          68.9585
        ]
      },
      "properties": {
        "name": "Aurora over Murmansk",
        "emoji": "🌌",
        "category": "Atmospheric Phenomenon",
        "categoryLabel": "Atmospheric Phenomenon",
        "description": "OVATION puts auroral visibility at 24% overhead tonight. Planetary Kp is forecast to peak near 4.67 on 15 Sep 03:00 UTC. Clear skies and darkness still decide it.",
        "locationHint": "Murmansk",
        "geocodedAddress": "Russia",
        "sourceUrl": "https://services.swpc.noaa.gov/json/ovation_aurora_latest.json",
        "startUtc": "2026-09-14T21:34:27.234197Z",
        "endUtc": "2026-09-17T21:34:27.234197Z",
        "confidence": 0.529,
        "isWithinLiveWindow": true
      }
    }
  ]
}